[{"OBJECT_NAME":"STARLINK-4348","OBJECT_ID":"2022-077AJ","EPOCH":"2026-03-09T22:21:05.166720","MEAN_MOTION":15.01565297,"ECCENTRICITY":0.00023714,"INCLINATION":97.6028,"RA_OF_ASC_NODE":250.4329,"ARG_OF_PERICENTER":150.6468,"MEAN_ANOMALY":209.489,"EPHEMERIS_TYPE":0,"CLASSIFICATION_TYPE":"U","NORAD_CAT_ID":53075,"ELEMENT_SET_NO":999,"REV_AT_EPOCH":20095,"BSTAR":0.0028947618,"MEAN_MOTION_DOT":0.00037622,"MEAN_MOTION_DDOT":0},{"OBJECT_NAME":"ICEYE-X57","OBJECT_ID":"2025-135BC","EPOCH":"2026-03-09T22:18:00.647424","MEAN_MOTION":15.00870088,"ECCENTRICITY":0.00021914,"INCLINATION":97.7623,"RA_OF_ASC_NODE":185.2979,"ARG_OF_PERICENTER":76.2741,"MEAN_ANOMALY":283.8727,"EPHEMERIS_TYPE":0,"CLASSIFICATION_TYPE":"U","NORAD_CAT_ID":64578,"ELEMENT_SET_NO":999,"REV_AT_EPOCH":3913,"BSTAR":0.00060837081,"MEAN_MOTION_DOT":7.683e-5,"MEAN_MOTION_DDOT":0}]
